[{"OBJECT_NAME":"HAWK-C","OBJECT_ID":"2018-099AT","EPOCH":"2026-03-09T16:08:34.251360","MEAN_MOTION":15.26407167,"ECCENTRICITY":0.00403625,"INCLINATION":97.4027,"RA_OF_ASC_NODE":122.6817,"ARG_OF_PERICENTER":277.4052,"MEAN_ANOMALY":82.2601,"EPHEMERIS_TYPE":0,"CLASSIFICATION_TYPE":"U","NORAD_CAT_ID":43799,"ELEMENT_SET_NO":999,"REV_AT_EPOCH":39872,"BSTAR":0.00035662773,"MEAN_MOTION_DOT":9.431e-5,"MEAN_MOTION_DDOT":0},{"OBJECT_NAME":"STARLINK-30846","OBJECT_ID":"2023-170E","EPOCH":"2026-03-09T22:00:01.999584","MEAN_MOTION":15.26732422,"ECCENTRICITY":0.00014288,"INCLINATION":43.0007,"RA_OF_ASC_NODE":193.3919,"ARG_OF_PERICENTER":269.3036,"MEAN_ANOMALY":280.8259,"EPHEMERIS_TYPE":0,"CLASSIFICATION_TYPE":"U","NORAD_CAT_ID":58210,"ELEMENT_SET_NO":999,"REV_AT_EPOCH":572,"BSTAR":0.00080478608,"MEAN_MOTION_DOT":0.00021385,"MEAN_MOTION_DDOT":0}]
